GLOBALSTAR M023 [+]     
1 25621U 99004A   24034.47567378 -.00000010  00000+0  52345-3 0  9991
2 25621  52.0108 135.0014 0011036 102.5591 338.2493 12.62446035152612
GLOBALSTAR M036 [-]     
1 25623U 99004C   24034.70363771 -.00000064  00000+0  26614-3 0  9999
2 25623  51.9964 116.8031 0011919 172.5898 356.0771 11.86559762119667
GLOBALSTAR M022 [-]     
1 25649U 99012A   24034.67631962 -.00000071  00000+0  18832-3 0  9993
2 25649  52.0010 208.7721 0001497 251.6457 190.1954 12.02477458116360
GLOBALSTAR M046 [-]     
1 25651U 99012C   24034.57743192 -.00000158  00000+0 -76275-3 0  9996
2 25651  52.0039 177.4101 0001746   5.6111  74.3834 12.09384423123217
GLOBALSTAR M037 [+]     
1 25652U 99012D   24034.82875319 -.00000032  00000+0  40038-3 0  9990
2 25652  51.9990 264.7400 0002173 133.3081 307.7960 12.62395368148257
